start=new Date('2022-01-25T00:00:00.000Z').valueOf();
sats=[{"SEMIMAJOR_AXIS":"6925.332","LAUNCH_DATE":"2021-05-15","MEAN_MOTION_DOT":"0.00000345","TLE_LINE1":"1 48602U 21041BB  22024.51385591  .00000345  00000-0  42025-4 0  9994","OBJECT_TYPE":"PAYLOAD","SITE":"AFETR","NORAD_CAT_ID":"48602","MEAN_ELEMENT_THEORY":"SGP4","MEAN_MOTION_DDOT":"0.0000000000000","APOAPSIS":"548.280","RA_OF_ASC_NODE":"33.6187","COUNTRY_CODE":"US","ECCENTRICITY":"0.00015650","MEAN_ANOMALY":"292.3927","INCLINATION":"53.0529","EPOCH":"2022-01-24T12:19:57.150624","MEAN_MOTION":"15.06405511","TLE_LINE2":"2 48602  53.0529  33.6187 0001565  67.7228 292.3927 15.06405511 39805","ELEMENT_SET_NO":"999","EPHEMERIS_TYPE":"0","CLASSIFICATION_TYPE":"U","REV_AT_EPOCH":"3980","REF_FRAME":"TEME","CENTER_NAME":"EARTH","BSTAR":"0.00004202500000","TIME_SYSTEM":"UTC","FILE":"3282614","RCS_SIZE":"LARGE","GP_ID":"194573128","OBJECT_ID":"2021-041BB","PERIAPSIS":"546.113","ARG_OF_PERICENTER":"67.7228","PERIOD":"95.592","OBJECT_NAME":"STARLINK-2713","DECAY_DATE":null},{"TLE_LINE1":"1 48603U 21041BC  22024.42675058  .00002157  00000-0  16364-3 0  9994","OBJECT_TYPE":"PAYLOAD","SITE":"AFETR","LAUNCH_DATE":"2021-05-15","SEMIMAJOR_AXIS":"6925.330","MEAN_MOTION_DOT":"0.00002157","MEAN_ELEMENT_THEORY":"SGP4","NORAD_CAT_ID":"48603","APOAPSIS":"548.159","COUNTRY_CODE":"US","RA_OF_ASC_NODE":"29.0056","MEAN_MOTION_DDOT":"0.0000000000000","EPOCH":"2022-01-24T10:14:31.250112","MEAN_MOTION":"15.06406201","ECCENTRICITY":"0.00013930","INCLINATION":"53.0543","MEAN_ANOMALY":"290.4699","BSTAR":"0.00016364000000","CENTER_NAME":"EARTH","REV_AT_EPOCH":"3987","REF_FRAME":"TEME","FILE":"3281820","TIME_SYSTEM":"UTC","TLE_LINE2":"2 48603  53.0543  29.0056 0001393  69.6440 290.4699 15.06406201 39871","EPHEMERIS_TYPE":"0","ELEMENT_SET_NO":"999","CLASSIFICATION_TYPE":"U","RCS_SIZE":"LARGE","GP_ID":"194533150","ARG_OF_PERICENTER":"69.6440","PERIOD":"95.592","OBJECT_ID":"2021-041BC","PERIAPSIS":"546.230","OBJECT_NAME":"STARLINK-2714","DECAY_DATE":null},{"MEAN_ELEMENT_THEORY":"SGP4","NORAD_CAT_ID":"48604","SITE":"AFETR","TLE_LINE1":"1 48604U 21041BD  22024.49495753  .00000529  00000-0  54415-4 0  9995","OBJECT_TYPE":"PAYLOAD","LAUNCH_DATE":"2021-05-15","SEMIMAJOR_AXIS":"6925.338","MEAN_MOTION_DOT":"0.00000529","EPOCH":"2022-01-24T11:52:44.330592","MEAN_MOTION":"15.06403599","ECCENTRICITY":"0.00014150","INCLINATION":"53.0553","MEAN_ANOMALY":"285.7398","APOAPSIS":"548.182","COUNTRY_CODE":"US","RA_OF_ASC_NODE":"58.7018","MEAN_MOTION_DDOT":"0.0000000000000","RCS_SIZE":"LARGE","GP_ID":"194534401","REV_AT_EPOCH":"3946","REF_FRAME":"TEME","CENTER_NAME":"EARTH","BSTAR":"0.00005441500000","FILE":"3281820","TIME_SYSTEM":"UTC","TLE_LINE2":"2 48604  53.0553  58.7018 0001415  74.3747 285.7398 15.06403599 39463","ELEMENT_SET_NO":"999","EPHEMERIS_TYPE":"0","CLASSIFICATION_TYPE":"U","OBJECT_NAME":"STARLINK-2757","DECAY_DATE":null,"ARG_OF_PERICENTER":"74.3747","PERIOD":"95.592","OBJECT_ID":"2021-041BD","PERIAPSIS":"546.223"},{"EPOCH":"2022-01-24T10:43:03.642816","MEAN_MOTION":"15.06400318","ECCENTRICITY":"0.00014400","INCLINATION":"53.0561","MEAN_ANOMALY":"279.3100","APOAPSIS":"548.210","COUNTRY_CODE":"US","RA_OF_ASC_NODE":"33.9152","MEAN_MOTION_DDOT":"0.0000000000000","MEAN_ELEMENT_THEORY":"SGP4","NORAD_CAT_ID":"48638","SITE":"AFETR","TLE_LINE1":"1 48638U 21044A   22024.44656994  .00001231  00000-0  10149-3 0  9992","OBJECT_TYPE":"PAYLOAD","SEMIMAJOR_AXIS":"6925.348","LAUNCH_DATE":"2021-05-26","MEAN_MOTION_DOT":"0.00001231","OBJECT_NAME":"STARLINK-2758","DECAY_DATE":null,"ARG_OF_PERICENTER":"80.8052","PERIOD":"95.592","OBJECT_ID":"2021-044A","PERIAPSIS":"546.215","RCS_SIZE":"LARGE","GP_ID":"194532904","REF_FRAME":"TEME","REV_AT_EPOCH":"3690","CENTER_NAME":"EARTH","BSTAR":"0.00010149000000","FILE":"3281820","TIME_SYSTEM":"UTC","TLE_LINE2":"2 48638  53.0561  33.9152 0001440  80.8052 279.3100 15.06400318 36904","EPHEMERIS_TYPE":"0","ELEMENT_SET_NO":"999","CLASSIFICATION_TYPE":"U"},{"EPOCH":"2022-01-24T10:21:48.923136","MEAN_MOTION":"15.06402778","ECCENTRICITY":"0.00014410","INCLINATION":"53.0576","MEAN_ANOMALY":"287.8779","APOAPSIS":"548.203","COUNTRY_CODE":"US","RA_OF_ASC_NODE":"33.9742","MEAN_MOTION_DDOT":"0.0000000000000","MEAN_ELEMENT_THEORY":"SGP4","NORAD_CAT_ID":"48639","OBJECT_TYPE":"PAYLOAD","TLE_LINE1":"1 48639U 21044B   22024.43181624  .00001031  00000-0  88084-4 0  9997","SITE":"AFETR","LAUNCH_DATE":"2021-05-26","SEMIMAJOR_AXIS":"6925.340","MEAN_MOTION_DOT":"0.00001031","OBJECT_NAME":"STARLINK-2739","DECAY_DATE":null,"ARG_OF_PERICENTER":"72.2368","PERIOD":"95.592","OBJECT_ID":"2021-044B","PERIAPSIS":"546.207","RCS_SIZE":"LARGE","GP_ID":"194533654","REV_AT_EPOCH":"3690","REF_FRAME":"TEME","CENTER_NAME":"EARTH","BSTAR":"0.00008808400000","FILE":"3281820","TIME_SYSTEM":"UTC","TLE_LINE2":"2 48639  53.0576  33.9742 0001441  72.2368 287.8779 15.06402778 36900","CLASSIFICATION_TYPE":"U","ELEMENT_SET_NO":"999","EPHEMERIS_TYPE":"0"},{"MEAN_MOTION_DDOT":"0.0000000000000","APOAPSIS":"548.261","COUNTRY_CODE":"US","RA_OF_ASC_NODE":"33.5399","ECCENTRICITY":"0.00015220","MEAN_ANOMALY":"283.2889","INCLINATION":"53.0573","EPOCH":"2022-01-24T12:45:07.509888","MEAN_MOTION":"15.06402302","SEMIMAJOR_AXIS":"6925.342","LAUNCH_DATE":"2021-05-26","MEAN_MOTION_DOT":"0.00000137","TLE_LINE1":"1 48640U 21044C   22024.53133692  .00000137  00000-0  28061-4 0  9997","OBJECT_TYPE":"PAYLOAD","SITE":"AFETR","NORAD_CAT_ID":"48640","MEAN_ELEMENT_THEORY":"SGP4","OBJECT_ID":"2021-044C","PERIAPSIS":"546.152","ARG_OF_PERICENTER":"76.8270","PERIOD":"95.592","OBJECT_NAME":"STARLINK-2736","DECAY_DATE":null,"TLE_LINE2":"2 48640  53.0573  33.5399 0001522  76.8270 283.2889 15.06402302 36911","CLASSIFICATION_TYPE":"U","ELEMENT_SET_NO":"999","EPHEMERIS_TYPE":"0","BSTAR":"0.00002806100000","CENTER_NAME":"EARTH","REF_FRAME":"TEME","REV_AT_EPOCH":"3691","FILE":"3282614","TIME_SYSTEM":"UTC","RCS_SIZE":"LARGE","GP_ID":"194571632"},{"ECCENTRICITY":"0.00019400","INCLINATION":"53.0555","MEAN_ANOMALY":"295.3454","EPOCH":"2022-01-24T12:06:00.552384","MEAN_MOTION":"15.06389574","MEAN_MOTION_DDOT":"0.0000000000000","APOAPSIS":"548.589","COUNTRY_CODE":"US","RA_OF_ASC_NODE":"38.6597","NORAD_CAT_ID":"48641","MEAN_ELEMENT_THEORY":"SGP4","SEMIMAJOR_AXIS":"6925.381","LAUNCH_DATE":"2021-05-26","MEAN_MOTION_DOT":"-0.00002329","TLE_LINE1":"1 48641U 21044D   22024.50417306 -.00002329  00000-0 -13751-3 0  9998","OBJECT_TYPE":"PAYLOAD","SITE":"AFETR","OBJECT_NAME":"STARLINK-2754","DECAY_DATE":null,"OBJECT_ID":"2021-044D","PERIAPSIS":"545.902","ARG_OF_PERICENTER":"64.7735","PERIOD":"95.593","RCS_SIZE":"LARGE","GP_ID":"194534656","TLE_LINE2":"2 48641  53.0555  38.6597 0001940  64.7735 295.3454 15.06389574 36843","ELEMENT_SET_NO":"999","CLASSIFICATION_TYPE":"U","EPHEMERIS_TYPE":"0","CENTER_NAME":"EARTH","BSTAR":"-0.00013751000000","REV_AT_EPOCH":"3684","REF_FRAME":"TEME","FILE":"3281820","TIME_SYSTEM":"UTC"},{"MEAN_ELEMENT_THEORY":"SGP4","NORAD_CAT_ID":"48642","TLE_LINE1":"1 48642U 21044E   22024.51797909  .00000202  00000-0  32444-4 0  9997","SITE":"AFETR","OBJECT_TYPE":"PAYLOAD","MEAN_MOTION_DOT":"0.00000202","SEMIMAJOR_AXIS":"6925.353","LAUNCH_DATE":"2021-05-26","MEAN_MOTION":"15.06398546","EPOCH":"2022-01-24T12:25:53.393376","INCLINATION":"53.0577","MEAN_ANOMALY":"289.3730","ECCENTRICITY":"0.00014730","COUNTRY_CODE":"US","RA_OF_ASC_NODE":"38.5891","APOAPSIS":"548.238","MEAN_MOTION_DDOT":"0.0000000000000","GP_ID":"194573133","RCS_SIZE":"LARGE","TIME_SYSTEM":"UTC","FILE":"3282614","BSTAR":"0.00003244400000","CENTER_NAME":"EARTH","REV_AT_EPOCH":"3684","REF_FRAME":"TEME","ELEMENT_SET_NO":"999","EPHEMERIS_TYPE":"0","CLASSIFICATION_TYPE":"U","TLE_LINE2":"2 48642  53.0577  38.5891 0001473  70.7418 289.3730 15.06398546 36849","DECAY_DATE":null,"OBJECT_NAME":"STARLINK-2646","PERIOD":"95.592","ARG_OF_PERICENTER":"70.7418","PERIAPSIS":"546.198","OBJECT_ID":"2021-044E"},{"TLE_LINE2":"2 48643  53.0552  38.9660 0001336  75.7486 284.3652 15.06406566 36838","EPHEMERIS_TYPE":"0","ELEMENT_SET_NO":"999","CLASSIFICATION_TYPE":"U","CENTER_NAME":"EARTH","BSTAR":"0.00012715000000","REV_AT_EPOCH":"3683","REF_FRAME":"TEME","TIME_SYSTEM":"UTC","FILE":"3281820","RCS_SIZE":"LARGE","GP_ID":"194533155","OBJECT_ID":"2021-044F","PERIAPSIS":"546.268","ARG_OF_PERICENTER":"75.7486","PERIOD":"95.592","OBJECT_NAME":"STARLINK-2704","DECAY_DATE":null,"SEMIMAJOR_AXIS":"6925.328","LAUNCH_DATE":"2021-05-26","MEAN_MOTION_DOT":"0.00001613","TLE_LINE1":"1 48643U 21044F   22024.43414043  .00001613  00000-0  12715-3 0  9999","OBJECT_TYPE":"PAYLOAD","SITE":"AFETR","NORAD_CAT_ID":"48643","MEAN_ELEMENT_THEORY":"SGP4","MEAN_MOTION_DDOT":"0.0000000000000","APOAPSIS":"548.119","COUNTRY_CODE":"US","RA_OF_ASC_NODE":"38.9660","ECCENTRICITY":"0.00013360","INCLINATION":"53.0552","MEAN_ANOMALY":"284.3652","EPOCH":"2022-01-24T10:25:09.733152","MEAN_MOTION":"15.06406566"},{"TLE_LINE1":"1 48644U 21044G   22024.36410952  .00000658  00000-0  63026-4 0  9997","SITE":"AFETR","OBJECT_TYPE":"PAYLOAD","SEMIMAJOR_AXIS":"6925.330","LAUNCH_DATE":"2021-05-26","MEAN_MOTION_DOT":"0.00000658","MEAN_ELEMENT_THEORY":"SGP4","NORAD_CAT_ID":"48644","APOAPSIS":"548.252","COUNTRY_CODE":"US","RA_OF_ASC_NODE":"39.2927","MEAN_MOTION_DDOT":"0.0000000000000","EPOCH":"2022-01-24T08:44:19.062528","MEAN_MOTION":"15.06406201","ECCENTRICITY":"0.00015270","MEAN_ANOMALY":"292.6761","INCLINATION":"53.0567","REF_FRAME":"TEME","REV_AT_EPOCH":"3682","CENTER_NAME":"EARTH","BSTAR":"0.00006302600000","FILE":"3281820","TIME_SYSTEM":"UTC","TLE_LINE2":"2 48644  53.0567  39.2927 0001527  67.4389 292.6761 15.06406201 36825","EPHEMERIS_TYPE":"0","ELEMENT_SET_NO":"999","CLASSIFICATION_TYPE":"U","RCS_SIZE":"LARGE","GP_ID":"194534406","ARG_OF_PERICENTER":"67.4389","PERIOD":"95.592","OBJECT_ID":"2021-044G","PERIAPSIS":"546.137","OBJECT_NAME":"STARLINK-2695","DECAY_DATE":null}];
